BEIDOU-3 M19 (C41)      
1 44864U 19090A   26064.56032794 -.00000033  00000+0  00000+0 0  9994
2 44864  56.4687  66.2141 0020433 291.4658 245.9437  1.86231373 42308
BEIDOU-3 M20 (C42)      
1 44865U 19090B   26064.42720734 -.00000032  00000+0  00000+0 0  9997
2 44865  56.4702  66.2529 0017835 302.9017 234.8674  1.86231388 42289
BEIDOU-3 G2 (C60)       
1 45344U 20017A   26066.64416351 -.00000141  00000+0  00000+0 0  9995
2 45344   2.6606  45.6423 0002731 312.4913 119.1467  1.00272784 22242
COSMOS 2545 (760)       
1 45358U 20018A   26064.04887093 -.00000054  00000+0  00000+0 0  9991
2 45358  64.4172 316.0811 0008063 250.0323 109.9417  2.13102426 46443
BEIDOU-3 G3 (C61)       
1 45807U 20040A   26066.31662976 -.00000355  00000+0  00000+0 0  9992
2 45807   2.1970  67.1394 0004605 320.2031   2.1784  1.00274224 21042
GPS BIII-3  (PRN 23)    
1 45854U 20041A   26065.51925653 -.00000081  00000+0  00000+0 0  9996
2 45854  56.6073  32.9268 0061430 205.2409 151.1260  2.00560728 41978
GALAXY 30 (WAAS/PRN 135)
1 46114U 20056C   26066.51780862  .00000000  00000+0  00000+0 0  9994
2 46114   0.0219 149.1291 0002062 212.1754 225.3458  1.00272034 20278
COSMOS 2547 (705K)      
1 46805U 20075A   26065.64518105  .00000026  00000+0  00000+0 0  9992
2 46805  64.5994 195.8945 0006874 230.4824 129.4314  2.13100263 41727
GPS BIII-4  (PRN 14)    
1 46826U 20078A   26065.79616591  .00000022  00000+0  00000+0 0  9998
2 46826  54.0012 214.9287 0068324 204.3590 325.2473  2.00565568 39453
GPS BIII-5  (PRN 11)    
1 48859U 21054A   26064.07032190 -.00000101  00000+0  00000+0 0  9997
2 48859  55.2207 336.6471 0023861 232.0319 315.6765  2.00575594 34666
QZS-1R (QZSS/PRN 196)   
1 49336U 21096A   26065.82405683 -.00000265  00000+0  00000+0 0  9990
2 49336  37.2488  81.0937 0747759 269.7649 244.5984  1.00290649 15989
GSAT0223 (GALILEO 27)   
1 49809U 21116A   26048.03988929 -.00000078  00000+0  00000+0 0  9993
2 49809  57.2005 344.9238 0002865 278.1950 264.6358  1.70475508 26130
GSAT0224 (GALILEO 28)   
1 49810U 21116B   26064.29072237 -.00000105  00000+0  00000+0 0  9998
2 49810  57.1948 344.4822 0001942 295.2728 253.6293  1.70475760 26438
COSMOS 2557 (706K)      
1 52984U 22075A   26066.27951789 -.00000063  00000+0  00000+0 0  9990
2 52984  64.3574 318.0770 0011419 283.6500  76.2804  2.13101888 28543
COSMOS 2559 (707K)      
1 54031U 22130A   26064.69111461 -.00000060  00000+0  00000+0 0  9993
2 54031  64.3310 318.2203 0010609 181.3136 178.7423  2.13101297 26488
COSMOS 2564 (761)       
1 54377U 22161A   26065.47314812  .00000025  00000+0  00000+0 0  9992
2 54377  64.7415 196.1184 0009460 210.1148 149.8044  2.13101994 25446
GPS BIII-6  (PRN 28)    
1 55268U 23009A   26064.24350115  .00000010  00000+0  00000+0 0  9998
2 55268  55.1095 152.6049 0004568 336.6055  15.2776  2.00549197 23157
